[{"OBJECT_NAME":"WILDFIRE 1","OBJECT_ID":"2023-133H","EPOCH":"2026-03-09T14:37:46.070400","MEAN_MOTION":13.8571565,"ECCENTRICITY":0.0005359,"INCLINATION":80.9966,"RA_OF_ASC_NODE":102.6376,"ARG_OF_PERICENTER":268.5807,"MEAN_ANOMALY":91.4735,"EPHEMERIS_TYPE":0,"CLASSIFICATION_TYPE":"U","NORAD_CAT_ID":57764,"ELEMENT_SET_NO":999,"REV_AT_EPOCH":12726,"BSTAR":9.768e-5,"MEAN_MOTION_DOT":1.23e-6,"MEAN_MOTION_DDOT":0},{"OBJECT_NAME":"SL-8 DEB","OBJECT_ID":"1977-116D","EPOCH":"2026-03-09T22:24:45.144576","MEAN_MOTION":13.7897871,"ECCENTRICITY":0.00329505,"INCLINATION":65.8339,"RA_OF_ASC_NODE":307.3128,"ARG_OF_PERICENTER":338.1918,"MEAN_ANOMALY":116.8733,"EPHEMERIS_TYPE":0,"CLASSIFICATION_TYPE":"U","NORAD_CAT_ID":10526,"ELEMENT_SET_NO":999,"REV_AT_EPOCH":42302,"BSTAR":0.00025406129,"MEAN_MOTION_DOT":1.79e-6,"MEAN_MOTION_DDOT":0}]
